STARLINK-34670
1 65424U 25192W   26079.57715940  .00020972  00000+0  71785-3 0  9992
2 65424  53.1639 181.6027 0000959  74.0564 286.0543 15.30216201 31052
STARLINK-35095
1 65425U 25192X   26079.75949852  .00014281  00000+0  49361-3 0  9995
2 65425  53.1600 181.3142 0001063  81.6440 278.4681 15.30183440 31078
STARLINK-34883
1 65426U 25192Y   26079.57082464  .00020341  00000+0  69671-3 0  9993
2 65426  53.1591 181.5599 0001168  78.0884 282.0248 15.30213684 31045
STARLINK-34916
1 65427U 25192Z   26079.44336552  .00021336  00000+0  73067-3 0  9999
2 65427  53.1588 182.1878 0001026  79.6914 280.4202 15.30189398 31038
STARLINK-35004
1 65428U 25192AA  26079.74577934  .00036344  00000+0  12326-2 0  9999
2 65428  53.1588 181.2257 0001087  92.7279 267.3847 15.30217666 31070
STARLINK-35014
1 65429U 25192AB  26079.75105027  .00025596  00000+0  87253-3 0  9990
2 65429  53.1585 181.2600 0000954  60.9613 299.1484 15.30230417 31070
STARLINK-35025
1 65430U 25192AC  26079.68996330  .00030153  00000+0  10258-2 0  9994
2 65430  53.1597 181.5900 0001392  86.3550 273.7610 15.30207581 31064
STARLINK-35034
1 65431U 25192AD  26079.74048546  .00035888  00000+0  12173-2 0  9997
2 65431  53.1617 181.1918 0000648 130.3872 229.7185 15.30218822 31072
STARLINK-35142
1 65434U 25194A   26079.58763579  .00005157  00000+0  36126-3 0  9995
2 65434  97.6023 295.0581 0002115  83.2293 276.9174 15.05659738 31286
STARLINK-34978
1 65435U 25194B   26079.87286154  .00005600  00000+0  39188-3 0  9991
2 65435  97.6019 295.4641 0002004  78.4431 281.7021 15.05660183 31337
STARLINK-35043
1 65436U 25194C   26079.54589336  .00004084  00000+0  32235-3 0  9995
2 65436  97.6046 295.8158 0003305  72.8399 287.3187 15.01253635 31321
STARLINK-35080
1 65437U 25194D   26079.54610667  .00006573  00000+0  45920-3 0  9998
2 65437  97.6017 295.1300 0001797  85.9060 274.2372 15.05659764 31288
STARLINK-35068
1 65438U 25194E   26079.59318092  .00001549  00000+0  11153-3 0  9990
2 65438  97.6037 295.0667 0002480  80.2075 279.9432 15.05647899 31285
STARLINK-35045
1 65439U 25194F   26079.55442673  .00006874  00000+0  47989-3 0  9992
2 65439  97.6021 295.1162 0002333  65.2474 294.8995 15.05668966 31281
STARLINK-35050
1 65440U 25194G   26079.33565989  .00002913  00000+0  20602-3 0  9999
2 65440  97.6015 294.9477 0001660  87.8482 272.2935 15.05652856 31255
STARLINK-35065
1 65441U 25194H   26079.31626933  .00000473  00000+0  36969-4 0  9998
2 65441  97.6020 294.8205 0001983  67.8096 292.3341 15.05656188 31242
