[{"OBJECT_NAME":"STARLINK-34670","OBJECT_ID":"2025-192W","EPOCH":"2026-03-20T13:51:06.572160","MEAN_MOTION":15.30216201,"ECCENTRICITY":9.59e-5,"INCLINATION":53.1639,"RA_OF_ASC_NODE":181.6027,"ARG_OF_PERICENTER":74.0564,"MEAN_ANOMALY":286.0543,"EPHEMERIS_TYPE":0,"CLASSIFICATION_TYPE":"U","NORAD_CAT_ID":65424,"ELEMENT_SET_NO":999,"REV_AT_EPOCH":3105,"BSTAR":0.00071785,"MEAN_MOTION_DOT":0.00020972,"MEAN_MOTION_DDOT":0},{"OBJECT_NAME":"STARLINK-35095","OBJECT_ID":"2025-192X","EPOCH":"2026-03-20T18:13:40.672128","MEAN_MOTION":15.3018344,"ECCENTRICITY":0.00010638,"INCLINATION":53.16,"RA_OF_ASC_NODE":181.3142,"ARG_OF_PERICENTER":81.644,"MEAN_ANOMALY":278.4681,"EPHEMERIS_TYPE":0,"CLASSIFICATION_TYPE":"U","NORAD_CAT_ID":65425,"ELEMENT_SET_NO":999,"REV_AT_EPOCH":3107,"BSTAR":0.00049360514,"MEAN_MOTION_DOT":0.00014281,"MEAN_MOTION_DDOT":0},{"OBJECT_NAME":"STARLINK-34883","OBJECT_ID":"2025-192Y","EPOCH":"2026-03-20T13:41:59.248896","MEAN_MOTION":15.30213684,"ECCENTRICITY":0.00011687,"INCLINATION":53.1591,"RA_OF_ASC_NODE":181.5599,"ARG_OF_PERICENTER":78.0884,"MEAN_ANOMALY":282.0248,"EPHEMERIS_TYPE":0,"CLASSIFICATION_TYPE":"U","NORAD_CAT_ID":65426,"ELEMENT_SET_NO":999,"REV_AT_EPOCH":3104,"BSTAR":0.0006967103,"MEAN_MOTION_DOT":0.00020341,"MEAN_MOTION_DDOT":0},{"OBJECT_NAME":"STARLINK-34916","OBJECT_ID":"2025-192Z","EPOCH":"2026-03-20T10:38:26.780928","MEAN_MOTION":15.30189398,"ECCENTRICITY":0.00010267,"INCLINATION":53.1588,"RA_OF_ASC_NODE":182.1878,"ARG_OF_PERICENTER":79.6914,"MEAN_ANOMALY":280.4202,"EPHEMERIS_TYPE":0,"CLASSIFICATION_TYPE":"U","NORAD_CAT_ID":65427,"ELEMENT_SET_NO":999,"REV_AT_EPOCH":3103,"BSTAR":0.0007306677,"MEAN_MOTION_DOT":0.00021336,"MEAN_MOTION_DDOT":0},{"OBJECT_NAME":"STARLINK-35004","OBJECT_ID":"2025-192AA","EPOCH":"2026-03-20T17:53:55.334976","MEAN_MOTION":15.30217666,"ECCENTRICITY":0.0001087,"INCLINATION":53.1588,"RA_OF_ASC_NODE":181.2257,"ARG_OF_PERICENTER":92.7279,"MEAN_ANOMALY":267.3847,"EPHEMERIS_TYPE":0,"CLASSIFICATION_TYPE":"U","NORAD_CAT_ID":65428,"ELEMENT_SET_NO":999,"REV_AT_EPOCH":3107,"BSTAR":0.0012326,"MEAN_MOTION_DOT":0.00036344,"MEAN_MOTION_DDOT":0},{"OBJECT_NAME":"STARLINK-35014","OBJECT_ID":"2025-192AB","EPOCH":"2026-03-20T18:01:30.743328","MEAN_MOTION":15.30230417,"ECCENTRICITY":9.545e-5,"INCLINATION":53.1585,"RA_OF_ASC_NODE":181.26,"ARG_OF_PERICENTER":60.9613,"MEAN_ANOMALY":299.1484,"EPHEMERIS_TYPE":0,"CLASSIFICATION_TYPE":"U","NORAD_CAT_ID":65429,"ELEMENT_SET_NO":999,"REV_AT_EPOCH":3107,"BSTAR":0.00087252938,"MEAN_MOTION_DOT":0.00025596,"MEAN_MOTION_DDOT":0},{"OBJECT_NAME":"STARLINK-35025","OBJECT_ID":"2025-192AC","EPOCH":"2026-03-20T16:33:32.829120","MEAN_MOTION":15.30207581,"ECCENTRICITY":0.00013926,"INCLINATION":53.1597,"RA_OF_ASC_NODE":181.59,"ARG_OF_PERICENTER":86.355,"MEAN_ANOMALY":273.761,"EPHEMERIS_TYPE":0,"CLASSIFICATION_TYPE":"U","NORAD_CAT_ID":65430,"ELEMENT_SET_NO":999,"REV_AT_EPOCH":3106,"BSTAR":0.0010258036,"MEAN_MOTION_DOT":0.00030153,"MEAN_MOTION_DDOT":0},{"OBJECT_NAME":"STARLINK-35034","OBJECT_ID":"2025-192AD","EPOCH":"2026-03-20T17:46:17.943744","MEAN_MOTION":15.30218822,"ECCENTRICITY":6.48e-5,"INCLINATION":53.1617,"RA_OF_ASC_NODE":181.1918,"ARG_OF_PERICENTER":130.3872,"MEAN_ANOMALY":229.7185,"EPHEMERIS_TYPE":0,"CLASSIFICATION_TYPE":"U","NORAD_CAT_ID":65431,"ELEMENT_SET_NO":999,"REV_AT_EPOCH":3107,"BSTAR":0.0012173,"MEAN_MOTION_DOT":0.00035888,"MEAN_MOTION_DDOT":0},{"OBJECT_NAME":"STARLINK-35142","OBJECT_ID":"2025-194A","EPOCH":"2026-03-20T14:06:11.732256","MEAN_MOTION":15.05659738,"ECCENTRICITY":0.0002115,"INCLINATION":97.6023,"RA_OF_ASC_NODE":295.0581,"ARG_OF_PERICENTER":83.2293,"MEAN_ANOMALY":276.9174,"EPHEMERIS_TYPE":0,"CLASSIFICATION_TYPE":"U","NORAD_CAT_ID":65434,"ELEMENT_SET_NO":999,"REV_AT_EPOCH":3128,"BSTAR":0.00036126,"MEAN_MOTION_DOT":5.157e-5,"MEAN_MOTION_DDOT":0},{"OBJECT_NAME":"STARLINK-34978","OBJECT_ID":"2025-194B","EPOCH":"2026-03-20T20:56:55.237056","MEAN_MOTION":15.05660183,"ECCENTRICITY":0.00020042,"INCLINATION":97.6019,"RA_OF_ASC_NODE":295.4641,"ARG_OF_PERICENTER":78.4431,"MEAN_ANOMALY":281.7021,"EPHEMERIS_TYPE":0,"CLASSIFICATION_TYPE":"U","NORAD_CAT_ID":65435,"ELEMENT_SET_NO":999,"REV_AT_EPOCH":3133,"BSTAR":0.00039188358,"MEAN_MOTION_DOT":5.6e-5,"MEAN_MOTION_DDOT":0},{"OBJECT_NAME":"STARLINK-35043","OBJECT_ID":"2025-194C","EPOCH":"2026-03-20T13:06:05.186304","MEAN_MOTION":15.01253635,"ECCENTRICITY":0.00033055,"INCLINATION":97.6046,"RA_OF_ASC_NODE":295.8158,"ARG_OF_PERICENTER":72.8399,"MEAN_ANOMALY":287.3187,"EPHEMERIS_TYPE":0,"CLASSIFICATION_TYPE":"U","NORAD_CAT_ID":65436,"ELEMENT_SET_NO":999,"REV_AT_EPOCH":3132,"BSTAR":0.00032234856,"MEAN_MOTION_DOT":4.084e-5,"MEAN_MOTION_DDOT":0},{"OBJECT_NAME":"STARLINK-35080","OBJECT_ID":"2025-194D","EPOCH":"2026-03-20T13:06:23.616288","MEAN_MOTION":15.05659764,"ECCENTRICITY":0.00017976,"INCLINATION":97.6017,"RA_OF_ASC_NODE":295.13,"ARG_OF_PERICENTER":85.906,"MEAN_ANOMALY":274.2372,"EPHEMERIS_TYPE":0,"CLASSIFICATION_TYPE":"U","NORAD_CAT_ID":65437,"ELEMENT_SET_NO":999,"REV_AT_EPOCH":3128,"BSTAR":0.00045919711,"MEAN_MOTION_DOT":6.573e-5,"MEAN_MOTION_DDOT":0},{"OBJECT_NAME":"STARLINK-35068","OBJECT_ID":"2025-194E","EPOCH":"2026-03-20T14:14:10.831488","MEAN_MOTION":15.05647899,"ECCENTRICITY":0.000248,"INCLINATION":97.6037,"RA_OF_ASC_NODE":295.0667,"ARG_OF_PERICENTER":80.2075,"MEAN_ANOMALY":279.9432,"EPHEMERIS_TYPE":0,"CLASSIFICATION_TYPE":"U","NORAD_CAT_ID":65438,"ELEMENT_SET_NO":999,"REV_AT_EPOCH":3128,"BSTAR":0.00011153,"MEAN_MOTION_DOT":1.549e-5,"MEAN_MOTION_DDOT":0},{"OBJECT_NAME":"STARLINK-35045","OBJECT_ID":"2025-194F","EPOCH":"2026-03-20T13:18:22.469472","MEAN_MOTION":15.05668966,"ECCENTRICITY":0.00023332,"INCLINATION":97.6021,"RA_OF_ASC_NODE":295.1162,"ARG_OF_PERICENTER":65.2474,"MEAN_ANOMALY":294.8995,"EPHEMERIS_TYPE":0,"CLASSIFICATION_TYPE":"U","NORAD_CAT_ID":65439,"ELEMENT_SET_NO":999,"REV_AT_EPOCH":3128,"BSTAR":0.00047989104,"MEAN_MOTION_DOT":6.874e-5,"MEAN_MOTION_DDOT":0},{"OBJECT_NAME":"STARLINK-35050","OBJECT_ID":"2025-194G","EPOCH":"2026-03-20T08:03:21.014496","MEAN_MOTION":15.05652856,"ECCENTRICITY":0.00016609,"INCLINATION":97.6015,"RA_OF_ASC_NODE":294.9477,"ARG_OF_PERICENTER":87.8482,"MEAN_ANOMALY":272.2935,"EPHEMERIS_TYPE":0,"CLASSIFICATION_TYPE":"U","NORAD_CAT_ID":65440,"ELEMENT_SET_NO":999,"REV_AT_EPOCH":3125,"BSTAR":0.00020601848,"MEAN_MOTION_DOT":2.913e-5,"MEAN_MOTION_DDOT":0},{"OBJECT_NAME":"STARLINK-35065","OBJECT_ID":"2025-194H","EPOCH":"2026-03-20T07:35:25.670112","MEAN_MOTION":15.05656188,"ECCENTRICITY":0.00019835,"INCLINATION":97.602,"RA_OF_ASC_NODE":294.8205,"ARG_OF_PERICENTER":67.8096,"MEAN_ANOMALY":292.3341,"EPHEMERIS_TYPE":0,"CLASSIFICATION_TYPE":"U","NORAD_CAT_ID":65441,"ELEMENT_SET_NO":999,"REV_AT_EPOCH":3124,"BSTAR":3.6968768e-5,"MEAN_MOTION_DOT":4.73e-6,"MEAN_MOTION_DDOT":0}]
